{"type":"Feature","properties":{"MUN":"KEYPORT BORO","COUNTY":"MONMOUTH","MUN_LABEL":"Keyport Borough","MUN_TYPE":"Borough","NAME":"Keyport Borough","GNIS_NAME":"Borough of Keyport"},"geometry":{"type":"Polygon","coordinates":[[[-74.1872933,40.4472173],[-74.1872475,40.4472652],[-74.1872123,40.4472551],[-74.187182,40.4472464],[-74.1871663,40.4472426],[-74.186999,40.447206],[-74.1866728,40.44713],[-74.1862156,40.4469881],[-74.1860412,40.446937],[-74.1859045,40.4469115],[-74.1856473,40.4468838],[-74.1854606,40.4468755],[-74.1851954,40.4468771],[-74.1850703,40.4468786],[-74.1850526,40.4468759],[-74.1849618,40.4468621],[-74.1848765,40.4468374],[-74.1847615,40.4467948],[-74.1846579,40.4467405],[-74.1845544,40.4466717],[-74.1844508,40.4466209],[-74.1843923,40.4465989],[-74.1843361,40.4465792],[-74.1841975,40.4465391],[-74.1840867,40.4465045],[-74.1839878,40.4464664],[-74.1839602,40.4464522],[-74.18391,40.4464265],[-74.1838584,40.4463776],[-74.1838209,40.4463271],[-74.1837881,40.4462585],[-74.1837555,40.446161],[-74.1837301,40.4460527],[-74.1836975,40.4459643],[-74.1836967,40.4459586],[-74.183686,40.4458831],[-74.1836735,40.4457984],[-74.1836527,40.44571],[-74.1836317,40.445645],[-74.1836154,40.4455963],[-74.1836061,40.4455602],[-74.1836064,40.4455079],[-74.1836184,40.4454592],[-74.1836351,40.4454124],[-74.1836542,40.4453764],[-74.1836922,40.4453152],[-74.1837255,40.4452738],[-74.1837776,40.4452271],[-74.1838345,40.4451839],[-74.1839102,40.4451337],[-74.1839742,40.4450833],[-74.1840517,40.445036],[-74.1841003,40.4450005],[-74.1841807,40.4449417],[-74.1842289,40.4449018],[-74.1842698,40.4448652],[-74.1843079,40.4448285],[-74.1843562,40.4447842],[-74.1843913,40.4447431],[-74.1844277,40.4447073],[-74.1844308,40.4447043],[-74.1844876,40.4446435],[-74.1845141,40.4446241],[-74.1845398,40.4446053],[-74.1845663,40.4445923],[-74.1846093,40.4445725],[-74.1846143,40.4445701],[-74.184658,40.4445569],[-74.1847061,40.444547],[-74.1847819,40.4445416],[-74.1848446,40.4445385],[-74.1848912,40.4445364],[-74.1849611,40.444531],[-74.1850136,40.4445245],[-74.1851193,40.4445047],[-74.1852009,40.4444827],[-74.1852791,40.4444593],[-74.185322,40.4444396],[-74.185376,40.444413],[-74.1854702,40.4443577],[-74.1855769,40.4442823],[-74.1856529,40.444218],[-74.1857363,40.4441536],[-74.1858343,40.4440649],[-74.1859096,40.4440039],[-74.1859623,40.4439528],[-74.1860105,40.4439107],[-74.1860442,40.443874],[-74.1860896,40.4438163],[-74.1861322,40.4437441],[-74.1861484,40.4436985],[-74.1861588,40.4436629],[-74.1861692,40.4436151],[-74.1861796,40.4435651],[-74.1861997,40.4434861],[-74.1862086,40.4434427],[-74.1862234,40.4433827],[-74.1862382,40.4433404],[-74.1862544,40.4432993],[-74.1862706,40.4432615],[-74.1862853,40.4432315],[-74.1862973,40.4432077],[-74.1863209,40.4431752],[-74.1863424,40.4431531],[-74.1863621,40.4431323],[-74.1863907,40.4431105],[-74.1864777,40.4430518],[-74.1865609,40.4430064],[-74.1866514,40.4429699],[-74.1867271,40.4429297],[-74.1868531,40.4428549],[-74.186959,40.4427879],[-74.1870184,40.4427516],[-74.1870633,40.4427241],[-74.1871198,40.4426934],[-74.1871459,40.4426824],[-74.1871748,40.4426725],[-74.1872023,40.442666],[-74.1872327,40.4426627],[-74.1872775,40.4426606],[-74.1873237,40.4426608],[-74.1873671,40.4426609],[-74.1874005,40.4426627],[-74.1874286,40.4426686],[-74.1875015,40.4426839],[-74.1877185,40.4427309],[-74.1878091,40.442758],[-74.1878961,40.4427887],[-74.187967,40.4428183],[-74.1880589,40.4428545],[-74.1881958,40.4429177],[-74.1883149,40.4429764],[-74.1883716,40.443014],[-74.1884204,40.4430545],[-74.188473,40.4431085],[-74.1885101,40.4431461],[-74.1885374,40.4431596],[-74.1885727,40.4431686],[-74.188604,40.4431702],[-74.1886491,40.4431644],[-74.1887442,40.4431347],[-74.1888169,40.4430885],[-74.1889112,40.4430139],[-74.189047,40.4428796],[-74.1891218,40.4427945],[-74.1891573,40.4427482],[-74.1892046,40.44269],[-74.189246,40.4426377],[-74.1892912,40.4425869],[-74.1893592,40.4425366],[-74.1894247,40.4424951],[-74.1895468,40.4424281],[-74.1895964,40.4423832],[-74.1896205,40.4423503],[-74.1896302,40.4423199],[-74.1896287,40.4422907],[-74.1896194,40.4422395],[-74.1896021,40.4421858],[-74.1895612,40.4420688],[-74.1894824,40.4419211],[-74.1894473,40.4417396],[-74.1894122,40.4416399],[-74.1893625,40.4415502],[-74.1893232,40.4414957],[-74.189284,40.4414403],[-74.1892526,40.4413899],[-74.1892344,40.4413496],[-74.1892125,40.4412796],[-74.1892103,40.4412315],[-74.1892117,40.4411899],[-74.1892129,40.4411382],[-74.1892101,40.4410416],[-74.1891961,40.4409349],[-74.1891584,40.4408241],[-74.1891232,40.4407535],[-74.189101,40.4407112],[-74.1890728,40.4406739],[-74.1890388,40.4406396],[-74.1890033,40.4406163],[-74.1889441,40.440596],[-74.1888915,40.4405838],[-74.188827,40.4405756],[-74.1887546,40.4405674],[-74.1886756,40.4405651],[-74.188609,40.440568],[-74.1885023,40.4405818],[-74.1884338,40.4405896],[-74.1883389,40.4405974],[-74.1882704,40.4406053],[-74.1882229,40.4406072],[-74.1881828,40.4406061],[-74.1881485,40.4405999],[-74.1881209,40.4405858],[-74.1880868,40.4405635],[-74.1880146,40.440512],[-74.187949,40.4404635],[-74.187882,40.4404251],[-74.1878241,40.4403958],[-74.1877492,40.4403664],[-74.1876821,40.440343],[-74.1876124,40.4403248],[-74.1875558,40.4403125],[-74.1875015,40.4403083],[-74.1874286,40.4402993],[-74.1873651,40.440291],[-74.1873194,40.4402801],[-74.1872716,40.4402663],[-74.1871908,40.44024],[-74.1871777,40.4402325],[-74.1871683,40.4402232],[-74.1871628,40.4402139],[-74.1871609,40.4402073],[-74.1871578,40.4401937],[-74.1871575,40.4401826],[-74.1871585,40.4401715],[-74.1871594,40.4401599],[-74.1871637,40.4401501],[-74.1873075,40.439911],[-74.1873281,40.4398728],[-74.1873535,40.4398269],[-74.1873821,40.4397856],[-74.1874121,40.439751],[-74.1874278,40.4397355],[-74.1874486,40.4397193],[-74.1875015,40.4396902],[-74.187548,40.4396779],[-74.1875974,40.4396717],[-74.1876574,40.4396692],[-74.187703,40.4396677],[-74.1877433,40.4396694],[-74.1877478,40.4396687],[-74.1878044,40.4396696],[-74.1878539,40.4396652],[-74.1878962,40.4396609],[-74.1879362,40.4396502],[-74.1879645,40.4396386],[-74.1880017,40.4396153],[-74.1880513,40.4395804],[-74.1880855,40.4395562],[-74.188115,40.4395365],[-74.1881445,40.4395141],[-74.1881646,40.4394935],[-74.1881776,40.4394738],[-74.1881877,40.4394558],[-74.1882007,40.4394343],[-74.1882079,40.4394155],[-74.1882154,40.4393934],[-74.1882174,40.4393876],[-74.1882256,40.4393434],[-74.1882343,40.4392969],[-74.1882347,40.4392927],[-74.1882355,40.4392834],[-74.1882415,40.4392691],[-74.1882462,40.4392646],[-74.188258,40.4392511],[-74.1882816,40.4392386],[-74.1883111,40.4392288],[-74.1883499,40.4392154],[-74.18839,40.4392048],[-74.1884347,40.4391977],[-74.1884818,40.4391897],[-74.1885077,40.4391817],[-74.188556,40.4391648],[-74.188622,40.4391407],[-74.1886738,40.4391156],[-74.1887357,40.439087],[-74.1887805,40.4390611],[-74.1888384,40.4390235],[-74.1888998,40.4389742],[-74.188967,40.4389196],[-74.1890827,40.4388346],[-74.1891714,40.4387627],[-74.189203,40.4387351],[-74.1892189,40.4387148],[-74.189231,40.4386876],[-74.1892357,40.4386768],[-74.1892394,40.4386516],[-74.1892383,40.4386337],[-74.1892361,40.4386067],[-74.1892338,40.4385959],[-74.189228,40.438577],[-74.1892122,40.4385437],[-74.1891924,40.4385095],[-74.1891796,40.4384888],[-74.1891714,40.4384663],[-74.1891668,40.4384501],[-74.1891669,40.4384322],[-74.189167,40.4384142],[-74.1891718,40.438381],[-74.1891791,40.4383459],[-74.1891957,40.4382992],[-74.18921,40.4382633],[-74.1892219,40.4382292],[-74.1892333,40.4381861],[-74.1892382,40.4381502],[-74.1892395,40.438116],[-74.1892385,40.4380783],[-74.1892316,40.4380387],[-74.1892212,40.4380081],[-74.189199,40.4379649],[-74.1891757,40.4379199],[-74.1891535,40.4378866],[-74.1891331,40.4378623],[-74.1891202,40.4378479],[-74.1891085,40.437829],[-74.1891027,40.4378101],[-74.1891051,40.4377966],[-74.1891075,40.4377814],[-74.1891099,40.4377733],[-74.1891218,40.4377544],[-74.1891383,40.4377383],[-74.1891596,40.4377204],[-74.189182,40.4377042],[-74.189208,40.4376872],[-74.1892433,40.4376703],[-74.1892728,40.4376578],[-74.1893011,40.4376453],[-74.189347,40.4376373],[-74.1893728,40.4376374],[-74.1894422,40.4376385],[-74.1895275,40.4376468],[-74.1895721,40.4376559],[-74.1896556,40.4376741],[-74.1896826,40.4376831],[-74.1897283,40.4377048],[-74.1898035,40.4377419],[-74.1898797,40.4377834],[-74.1899255,40.4378033],[-74.1899772,40.4378196],[-74.1900306,40.4378306],[-74.1900824,40.4378361],[-74.1901153,40.4378362],[-74.1901506,40.4378318],[-74.1901989,40.4378157],[-74.1902272,40.4377978],[-74.190252,40.4377727],[-74.1902721,40.4377449],[-74.1902841,40.437709],[-74.1902901,40.4376686],[-74.1902915,40.4376147],[-74.1902905,40.4375814],[-74.1902936,40.4375536],[-74.1902984,40.4375383],[-74.1903078,40.437523],[-74.1903185,40.4375177],[-74.1903373,40.437515],[-74.1903655,40.4375151],[-74.1904079,40.4375152],[-74.1904408,40.4375189],[-74.1904984,40.4375254],[-74.1905419,40.4375309],[-74.190583,40.4375292],[-74.1906207,40.4375275],[-74.1906442,40.4375239],[-74.1906643,40.4375186],[-74.1906885,40.437509],[-74.190701,40.4374972],[-74.1907113,40.4374823],[-74.1907161,40.4374658],[-74.190718,40.4374508],[-74.1907181,40.4374351],[-74.1907144,40.43742],[-74.1907079,40.4374064],[-74.1906977,40.4373964],[-74.1906771,40.4373849],[-74.1906341,40.4373697],[-74.1905528,40.4373466],[-74.1905023,40.4373308],[-74.1904547,40.4373106],[-74.190422,40.4372898],[-74.1904024,40.4372719],[-74.190395,40.4372554],[-74.190402,40.4371753],[-74.1904148,40.437138],[-74.1904303,40.4371051],[-74.1904499,40.4370763],[-74.1904723,40.4370561],[-74.1905072,40.4370413],[-74.1905324,40.4370318],[-74.1905673,40.4370255],[-74.1906022,40.4370181],[-74.1906385,40.4370129],[-74.1906678,40.4370055],[-74.1906943,40.4369971],[-74.1907195,40.4369865],[-74.1907447,40.4369759],[-74.190795,40.4369451],[-74.190837,40.4369026],[-74.1908539,40.4368824],[-74.1908798,40.4368505],[-74.1909275,40.436792],[-74.1909865,40.4367154],[-74.1910075,40.4366825],[-74.1910174,40.4366548],[-74.1910189,40.4366217],[-74.1909948,40.4365716],[-74.1909271,40.4364233],[-74.1908704,40.4363251],[-74.1908433,40.4362748],[-74.1908289,40.4362645],[-74.1908142,40.4362599],[-74.190794,40.4362557],[-74.1907765,40.4362536],[-74.1907556,40.4362525],[-74.1907422,40.4362525],[-74.1907267,40.436256],[-74.1907138,40.4362622],[-74.1906745,40.4363107],[-74.1906477,40.4363799],[-74.1906321,40.4364363],[-74.1906088,40.4364896],[-74.1905849,40.4365268],[-74.190554,40.4365672],[-74.1905218,40.4366108],[-74.1904895,40.4366597],[-74.1904725,40.4366991],[-74.1904557,40.4367321],[-74.1904444,40.436763],[-74.1904331,40.4367896],[-74.1904149,40.4368056],[-74.1903842,40.4368172],[-74.1903521,40.4368182],[-74.1903186,40.4368117],[-74.1902922,40.4367956],[-74.1902797,40.4367764],[-74.1902673,40.4367465],[-74.1902647,40.4366996],[-74.190269,40.4366719],[-74.1902775,40.4366432],[-74.1902875,40.4366102],[-74.1902932,40.436575],[-74.1902961,40.4365388],[-74.1903019,40.4365015],[-74.1902978,40.4364823],[-74.1902839,40.4364674],[-74.1902603,40.4364588],[-74.1902407,40.4364555],[-74.1902101,40.4364554],[-74.1901849,40.4364618],[-74.1901542,40.436467],[-74.1900893,40.4364786],[-74.1900307,40.4364816],[-74.1899694,40.436475],[-74.1898844,40.4364492],[-74.189819,40.4364118],[-74.1897606,40.4363743],[-74.1897175,40.4363412],[-74.1896981,40.4363177],[-74.1896829,40.436291],[-74.1896788,40.4362643],[-74.1896789,40.436243],[-74.1896818,40.4362238],[-74.1896945,40.4362058],[-74.1897183,40.4361823],[-74.1897518,40.436159],[-74.189784,40.4361356],[-74.1898037,40.4361176],[-74.1898303,40.4360889],[-74.18985,40.4360591],[-74.1898626,40.4360346],[-74.1898816,40.4360006],[-74.1899125,40.4359559],[-74.1899447,40.4359187],[-74.1899839,40.4358815],[-74.1900302,40.4358379],[-74.1900806,40.4357933],[-74.190124,40.4357572],[-74.1901548,40.4357274],[-74.1901773,40.4357019],[-74.1901815,40.4356838],[-74.1901872,40.4356561],[-74.1901846,40.4356262],[-74.1901679,40.4356081],[-74.1901422,40.4355899],[-74.1901103,40.435561],[-74.1900839,40.4355343],[-74.19007,40.4355183],[-74.1900576,40.4354938],[-74.1900465,40.4354639],[-74.1900453,40.4354351],[-74.1900454,40.435417],[-74.1900482,40.4353978],[-74.1900581,40.435385],[-74.1900749,40.4353723],[-74.1901,40.4353543],[-74.1901224,40.4353426],[-74.1901588,40.4353256],[-74.1901937,40.435314],[-74.1902356,40.4352992],[-74.1902649,40.4352897],[-74.1903239,40.435263],[-74.1903615,40.4352284],[-74.1903806,40.4352075],[-74.1903892,40.4351923],[-74.1903997,40.4351706],[-74.1904045,40.4351547],[-74.1904094,40.4351228],[-74.1904038,40.4351069],[-74.1903925,40.4350873],[-74.190385,40.4350728],[-74.1903737,40.4350583],[-74.1903557,40.4350452],[-74.1903474,40.4350405],[-74.1903378,40.435035],[-74.1903198,40.4350328],[-74.1902885,40.4350393],[-74.1902534,40.4350515],[-74.190223,40.4350622],[-74.1901898,40.4350737],[-74.1901633,40.4350831],[-74.1900969,40.4350988],[-74.1900684,40.4351038],[-74.1900248,40.4351117],[-74.1899788,40.4351188],[-74.1899021,40.4351171],[-74.1898755,40.4351171],[-74.1898443,40.4351126],[-74.1898301,40.4351083],[-74.1898169,40.4351017],[-74.1898055,40.4350908],[-74.1897962,40.435072],[-74.1897935,40.4350437],[-74.1897907,40.4350235],[-74.189789,40.4349923],[-74.1897881,40.4349691],[-74.1897901,40.4349409],[-74.1897893,40.434912],[-74.1897885,40.4348924],[-74.1897838,40.4348729],[-74.1897753,40.4348692],[-74.189764,40.4348663],[-74.1897479,40.4348684],[-74.189727,40.4348756],[-74.1897108,40.4348813],[-74.1896928,40.4348929],[-74.1896671,40.4349095],[-74.1896462,40.4349261],[-74.1896225,40.4349426],[-74.1896025,40.4349571],[-74.1895806,40.4349751],[-74.1895634,40.4349939],[-74.1895464,40.435009],[-74.1895302,40.4350242],[-74.1895131,40.4350394],[-74.1894945,40.4350567],[-74.1894755,40.4350675],[-74.1894574,40.4350776],[-74.1894394,40.4350848],[-74.1894252,40.4350905],[-74.1894034,40.4350963],[-74.1893617,40.435099],[-74.1893427,40.4350997],[-74.189323,40.4350932],[-74.1893152,40.435086],[-74.1893029,40.435073],[-74.1892953,40.4350445],[-74.1892868,40.4350055],[-74.1892832,40.4349533],[-74.1892796,40.4349077],[-74.1892713,40.4348787],[-74.1892581,40.434849],[-74.189244,40.434828],[-74.189228,40.4348134],[-74.1892129,40.4347924],[-74.1892068,40.4347772],[-74.1892031,40.4347612],[-74.1892051,40.4347309],[-74.1892092,40.4346809],[-74.1892141,40.4346368],[-74.1892305,40.4345804],[-74.1892453,40.4345522],[-74.1892767,40.4345226],[-74.1893043,40.4344951],[-74.1893262,40.4344713],[-74.189348,40.4344533],[-74.1893728,40.4344309],[-74.1894203,40.4343934],[-74.1894393,40.4343826],[-74.1894545,40.434371],[-74.1894754,40.4343595],[-74.1894935,40.4343487],[-74.1895059,40.4343335],[-74.1895126,40.4343212],[-74.1895183,40.4343039],[-74.1895193,40.4342887],[-74.1895175,40.4342735],[-74.1895048,40.4342546],[-74.1894727,40.4342422],[-74.1894471,40.43424],[-74.1894225,40.4342399],[-74.1893969,40.434242],[-74.1893599,40.4342491],[-74.1893134,40.4342526],[-74.1892452,40.4342568],[-74.1892054,40.4342582],[-74.1891628,40.434258],[-74.1891382,40.4342543],[-74.1891183,40.4342463],[-74.1890994,40.4342376],[-74.1890815,40.4342245],[-74.1890692,40.4342093],[-74.1890589,40.4341897],[-74.1890505,40.4341672],[-74.1890468,40.434152],[-74.189044,40.4341325],[-74.1890441,40.4341129],[-74.189047,40.4340927],[-74.189049,40.4340796],[-74.1890576,40.4340616],[-74.1890767,40.4340341],[-74.1891052,40.4340096],[-74.189149,40.4339757],[-74.1891723,40.4339533],[-74.1892103,40.4339259],[-74.1892369,40.4339064],[-74.1892607,40.4338819],[-74.1892826,40.4338551],[-74.1893026,40.4338327],[-74.1893236,40.4338118],[-74.1893464,40.4337887],[-74.1893939,40.4337519],[-74.1894177,40.433731],[-74.1894316,40.4337155],[-74.1894441,40.4337013],[-74.1894519,40.4336836],[-74.1894612,40.43365],[-74.1894612,40.4336348],[-74.1894575,40.4336225],[-74.1894509,40.4336124],[-74.1894396,40.4336015],[-74.1894226,40.4335913],[-74.1894047,40.4335811],[-74.1893857,40.433576],[-74.1893687,40.4335752],[-74.1893526,40.4335759],[-74.189326,40.4335787],[-74.1893051,40.4335888],[-74.1892909,40.4336003],[-74.1892737,40.4336213],[-74.1892599,40.4336393],[-74.1892409,40.4336596],[-74.1892067,40.4336805],[-74.1891772,40.4336905],[-74.189164,40.4336912],[-74.1891469,40.433689],[-74.1891224,40.433681],[-74.1891025,40.4336773],[-74.1890788,40.4336707],[-74.1890532,40.4336648],[-74.189023,40.433659],[-74.189005,40.4336589],[-74.1889879,40.4336582],[-74.1889709,40.4336581],[-74.1889604,40.4336588],[-74.1889434,40.4336624],[-74.1889291,40.4336681],[-74.1889139,40.4336753],[-74.1888978,40.4336861],[-74.1888826,40.4336977],[-74.1888636,40.4337092],[-74.1888441,40.433728],[-74.1888269,40.4337446],[-74.188807,40.4337576],[-74.1887852,40.4337698],[-74.1887586,40.4337777],[-74.1887396,40.4337849],[-74.1887178,40.4337906],[-74.1886979,40.4337971],[-74.1886808,40.4338028],[-74.1886628,40.4338057],[-74.1886438,40.4338064],[-74.1886249,40.433807],[-74.1886079,40.4338012],[-74.1885918,40.4337939],[-74.1885805,40.4337816],[-74.188571,40.4337678],[-74.1885598,40.4337475],[-74.1885568,40.4337303],[-74.1885543,40.4337034],[-74.1885483,40.4336678],[-74.1885484,40.4336382],[-74.1885503,40.4336053],[-74.1885531,40.4335791],[-74.1885551,40.4335724],[-74.1885673,40.4335476],[-74.188578,40.4335274],[-74.1885808,40.4335006],[-74.1885826,40.4334703],[-74.1885975,40.433383],[-74.1886004,40.4333246],[-74.1885997,40.4332977],[-74.1885784,40.4332311],[-74.1885723,40.4332049],[-74.1885743,40.4331787],[-74.1885833,40.4331438],[-74.1885905,40.4331015],[-74.1885959,40.4330652],[-74.1885987,40.4330303],[-74.1885971,40.4330028],[-74.1885911,40.4329765],[-74.1885789,40.4329416],[-74.1885693,40.4329207],[-74.1885628,40.4329012],[-74.1885603,40.4328905],[-74.1885612,40.432879],[-74.1885638,40.4328661],[-74.1885747,40.4328519],[-74.1885865,40.432842],[-74.1886296,40.4328233],[-74.1886471,40.4328154],[-74.1886687,40.4327972],[-74.1886752,40.4327887],[-74.1886856,40.432768],[-74.188706,40.4327417],[-74.1887325,40.4327236],[-74.1887598,40.4327076],[-74.1887889,40.4326889],[-74.1888083,40.4326701],[-74.1888269,40.4326487],[-74.1888393,40.4326211],[-74.1888398,40.432607],[-74.1888337,40.4325875],[-74.1888211,40.4325733],[-74.188808,40.4325666],[-74.18878,40.4325497],[-74.1888211,40.4325164],[-74.1888554,40.4324912],[-74.1888839,40.4324761],[-74.1889143,40.4324566],[-74.1889314,40.4324472],[-74.1889437,40.4324422],[-74.1889637,40.4324379],[-74.1889741,40.4324372],[-74.1889864,40.4324379],[-74.1889949,40.4324402],[-74.1890157,40.4324474],[-74.1890441,40.4324598],[-74.1890772,40.4324744],[-74.189098,40.4324904],[-74.1891216,40.43251],[-74.1891414,40.4325296],[-74.1891622,40.4325471],[-74.189183,40.4325594],[-74.189201,40.432566],[-74.189217,40.4325675],[-74.1892398,40.4325675],[-74.1892616,40.4325669],[-74.1892901,40.4325626],[-74.1893214,40.4325533],[-74.1893451,40.4325389],[-74.1893604,40.4325288],[-74.1894055,40.4324934],[-74.1895169,40.4323952],[-74.1896263,40.4323028],[-74.1896877,40.4322479],[-74.1897819,40.4321685],[-74.1898533,40.4320941],[-74.1899671,40.4319778],[-74.1900679,40.4318818],[-74.1901389,40.4318081],[-74.1902873,40.431681],[-74.1903777,40.4316016],[-74.1904461,40.4315129],[-74.1904807,40.4314747],[-74.1905248,40.4314293],[-74.190572,40.4313792],[-74.1906224,40.4313099],[-74.1906822,40.4312598],[-74.1907679,40.431187],[-74.1908198,40.4311404],[-74.1908669,40.4311083],[-74.1908983,40.4310928],[-74.190936,40.4310833],[-74.1909736,40.4310762],[-74.1910285,40.4310644],[-74.1910567,40.4310525],[-74.1910829,40.4310292],[-74.1910914,40.4309951],[-74.1910931,40.430976],[-74.1910955,40.4309533],[-74.1910926,40.4309113],[-74.1910835,40.4308479],[-74.1910758,40.4308168],[-74.1910759,40.430794],[-74.1910808,40.4307545],[-74.1911023,40.4306708],[-74.1911184,40.4305703],[-74.1911327,40.4305368],[-74.1911533,40.4304902],[-74.191188,40.4304388],[-74.1912352,40.4303755],[-74.1913753,40.4302406],[-74.1914711,40.4301655],[-74.1915048,40.4301358],[-74.1915388,40.4300951],[-74.1915838,40.4300293],[-74.1916642,40.4299111],[-74.1917896,40.4297219],[-74.1918606,40.429625],[-74.1918972,40.429586],[-74.1919098,40.429554],[-74.1919146,40.4295161],[-74.1919116,40.4294853],[-74.1919072,40.4294414],[-74.1918965,40.4293964],[-74.1918921,40.4293561],[-74.1918722,40.4292909],[-74.1918585,40.4292422],[-74.1918201,40.429164],[-74.1917692,40.4290904],[-74.1916857,40.4289644],[-74.1916564,40.4289291],[-74.1916219,40.4288732],[-74.1924062,40.4280682],[-74.1928365,40.427632],[-74.1928759,40.4276149],[-74.1929191,40.4275665],[-74.1929809,40.427548],[-74.1930222,40.4275153],[-74.1932156,40.42737],[-74.1932625,40.4273373],[-74.1933244,40.4272931],[-74.1933881,40.4272618],[-74.1934633,40.4271906],[-74.1934972,40.4271363],[-74.1935029,40.4271006],[-74.1934788,40.4270705],[-74.1933164,40.4269698],[-74.1933298,40.4269538],[-74.1933418,40.4269371],[-74.1933523,40.4269198],[-74.1933612,40.426902],[-74.1933685,40.4268838],[-74.1933915,40.42676],[-74.1935826,40.4257322],[-74.19376,40.4256834],[-74.1938742,40.4256494],[-74.1939886,40.4255854],[-74.194045,40.4255269],[-74.1940996,40.4254484],[-74.1941204,40.4253956],[-74.194119,40.4253013],[-74.1941007,40.4251955],[-74.1940249,40.425008],[-74.1939657,40.4248678],[-74.1939702,40.4247108],[-74.1940381,40.4246707],[-74.1940944,40.4246375],[-74.1941818,40.4246139],[-74.1967468,40.4241917],[-74.1969377,40.4241603],[-74.197106,40.4241218],[-74.1975019,40.4240555],[-74.1990996,40.423788],[-74.1999108,40.423671],[-74.2011152,40.4234835],[-74.2014959,40.4234225],[-74.201543,40.4234173],[-74.2016644,40.4234039],[-74.2030366,40.4233407],[-74.2041094,40.4232815],[-74.2043328,40.4232762],[-74.204652,40.4232686],[-74.205052,40.4232385],[-74.2053881,40.4232133],[-74.2069318,40.4230812],[-74.2072783,40.4230703],[-74.2078522,40.4230193],[-74.2097668,40.4228295],[-74.2097737,40.4228288],[-74.2108341,40.4227223],[-74.2118513,40.4226201],[-74.2136234,40.4260393],[-74.2138176,40.426567],[-74.2170103,40.4333721],[-74.2167079,40.4334228],[-74.2163451,40.4334911],[-74.2160573,40.4335636],[-74.2158385,40.4336417],[-74.2156689,40.4337024],[-74.2154853,40.433763],[-74.2154084,40.4337978],[-74.215351,40.4338237],[-74.215259,40.4338846],[-74.2150609,40.434035],[-74.2148073,40.434232],[-74.2147578,40.4342711],[-74.2145124,40.4344774],[-74.2140333,40.4349002],[-74.2139023,40.4350346],[-74.21377,40.4351834],[-74.2135998,40.4353986],[-74.2134627,40.4355851],[-74.2133077,40.4358093],[-74.213147,40.4360101],[-74.2130265,40.4361481],[-74.2127324,40.4364726],[-74.2124405,40.4367327],[-74.2122121,40.4369145],[-74.2120848,40.4370159],[-74.2118131,40.4372035],[-74.2117463,40.4372495],[-74.2115292,40.4373552],[-74.2113936,40.4374073],[-74.2113414,40.4374271],[-74.2112576,40.4374701],[-74.211129,40.4375122],[-74.211033,40.4375339],[-74.2105582,40.4376415],[-74.2101376,40.4376992],[-74.2099341,40.4377272],[-74.2098565,40.4377378],[-74.2095495,40.4377553],[-74.2089674,40.4377884],[-74.2081474,40.4378391],[-74.2075841,40.4379283],[-74.2068527,40.4380547],[-74.2061606,40.438219],[-74.2059131,40.4383391],[-74.2056853,40.438497],[-74.2056051,40.4385781],[-74.2054769,40.4387078],[-74.2051389,40.4392201],[-74.2048886,40.4396841],[-74.2047406,40.4399586],[-74.2045459,40.4403708],[-74.2024709,40.4393657],[-74.2023208,40.439356],[-74.2021312,40.4393431],[-74.202047,40.4393382],[-74.2018271,40.4392912],[-74.2017389,40.4392692],[-74.2016639,40.4392597],[-74.2014336,40.4392685],[-74.2013321,40.4392697],[-74.2012672,40.439268],[-74.2011902,40.4392647],[-74.2011121,40.4392583],[-74.2010431,40.4392504],[-74.2009712,40.439227],[-74.2008942,40.4392097],[-74.2007989,40.4392002],[-74.2006488,40.4391951],[-74.2003403,40.4392067],[-74.2002018,40.4392234],[-74.199698,40.4392609],[-74.1994775,40.4392877],[-74.1990546,40.4393604],[-74.1989705,40.4393702],[-74.1988155,40.4393818],[-74.1987433,40.4393876],[-74.1986684,40.4394075],[-74.1986302,40.4394255],[-74.1984828,40.4395263],[-74.1984704,40.4395258],[-74.1982796,40.439547],[-74.1982055,40.4395623],[-74.1979654,40.4395606],[-74.1979738,40.4396479],[-74.1978073,40.4396729],[-74.1977159,40.4396928],[-74.1976205,40.439722],[-74.1974731,40.4397737],[-74.1970717,40.4398887],[-74.1969299,40.4399336],[-74.1968863,40.4398547],[-74.1965619,40.4400064],[-74.1964101,40.4401361],[-74.1963816,40.4401582],[-74.1963419,40.4401926],[-74.1962478,40.4402742],[-74.1962192,40.440299],[-74.1961507,40.4403911],[-74.1963383,40.4406516],[-74.1961439,40.4407475],[-74.1960474,40.4407875],[-74.1960311,40.4407937],[-74.1960159,40.4407967],[-74.1960017,40.4407967],[-74.1959866,40.4407827],[-74.1959429,40.440716],[-74.1958748,40.4407376],[-74.1957979,40.4407407],[-74.1956596,40.440742],[-74.1955103,40.4407567],[-74.1953412,40.4407747],[-74.1952511,40.4407946],[-74.1950576,40.4408624],[-74.1950519,40.4408639],[-74.1949574,40.4408978],[-74.1947633,40.4409779],[-74.1945025,40.4410905],[-74.194435,40.4411196],[-74.1943999,40.4411319],[-74.1937887,40.4413447],[-74.19343,40.4415164],[-74.1927932,40.4418981],[-74.1924279,40.4421312],[-74.1923119,40.4422192],[-74.192205,40.4423027],[-74.1920351,40.4424107],[-74.1919577,40.4424663],[-74.1918783,40.442539],[-74.1918334,40.44259],[-74.1918098,40.442638],[-74.1918076,40.4426736],[-74.1918156,40.4427078],[-74.1918245,40.4427698],[-74.1918324,40.4427848],[-74.1918532,40.4429125],[-74.1918519,40.4429373],[-74.1920236,40.4431036],[-74.1920235,40.4431313],[-74.1919719,40.443175],[-74.1917655,40.4433201],[-74.191729,40.4433685],[-74.1917166,40.4434309],[-74.1917193,40.4435025],[-74.191716,40.4435672],[-74.1916887,40.4435902],[-74.1916481,40.4436046],[-74.1916472,40.4436064],[-74.1916187,40.4436187],[-74.1915973,40.4436187],[-74.1915629,40.4436186],[-74.1915142,40.4436122],[-74.1914676,40.4435982],[-74.191425,40.4435949],[-74.1913905,40.4436026],[-74.1913397,40.4436211],[-74.1912584,40.4436612],[-74.1911647,40.443726],[-74.1909653,40.4438495],[-74.1906519,40.4440533],[-74.1903324,40.4442632],[-74.1901591,40.4443695],[-74.1898935,40.4445705],[-74.1895515,40.444875],[-74.1893884,40.4450575],[-74.1893371,40.445135],[-74.1891586,40.4453917],[-74.1891359,40.4454583],[-74.1891214,40.4455311],[-74.1891273,40.4455761],[-74.1891454,40.4456087],[-74.1891615,40.4456289],[-74.1891944,40.4456528],[-74.1893043,40.4456928],[-74.1894298,40.445752],[-74.1894823,40.4458002],[-74.1895186,40.4458515],[-74.1895749,40.4459756],[-74.1895898,40.4460439],[-74.1895814,40.4461012],[-74.1895537,40.4461755],[-74.1895067,40.4462452],[-74.1894352,40.4463395],[-74.1893741,40.4463998],[-74.1892967,40.4464523],[-74.1892072,40.4465048],[-74.18913,40.4465294],[-74.1890742,40.4465323],[-74.1889788,40.446529],[-74.1889443,40.4465273],[-74.1889159,40.4465335],[-74.1888925,40.4465458],[-74.1888722,40.4465612],[-74.1888411,40.4465941],[-74.1888169,40.4466681],[-74.1887801,40.4467269],[-74.1887312,40.4467794],[-74.1886701,40.4468196],[-74.1886253,40.4468505],[-74.1885886,40.4468845],[-74.1885803,40.446934],[-74.1885882,40.4469868],[-74.1886204,40.4470365],[-74.1886525,40.4471079],[-74.1886522,40.4471885],[-74.1886397,40.4472597],[-74.1886272,40.4473248],[-74.1886047,40.4473681],[-74.1885618,40.4474176],[-74.1884967,40.4474609],[-74.1884472,40.4474721],[-74.1884155,40.4474792],[-74.1882795,40.4474851],[-74.1880443,40.4474472],[-74.1879389,40.4474098],[-74.1878458,40.4473723],[-74.1876979,40.447313],[-74.1875017,40.4472533],[-74.1875016,40.4472533],[-74.1875015,40.4472532],[-74.1873438,40.4472285],[-74.1872933,40.4472173]]]}}
